{
  "type": "FeatureCollection",
  "features": [
    {
      "type": "Feature",
      "properties": {
        "norad_id": 26766,
        "name": "INTELSAT 10 (IS-10)",
        "group": "intelsat",
        "lat": -7.9378207836151535,
        "lon": -52.689138716259,
        "alt_km": 36094.62920443559,
        "timestamp": "2025-12-18T07:01:54.255146+00:00",
        "meta_object_name": "INTELSAT 10 (IS-10)",
        "meta_object_id": "2001-019A",
        "meta_epoch": "2025-12-17T16:46:34.156416",
        "meta_mean_motion": 0.99076588,
        "meta_eccentricity": 0.00076789,
        "meta_inclination": 8.6409,
        "meta_ra_of_asc_node": 61.1075,
        "meta_arg_of_pericenter": 227.9542,
        "meta_mean_anomaly": 166.599,
        "meta_ephemeris_type": 0,
        "meta_classification_type": "U",
        "meta_norad_cat_id": 26766,
        "meta_element_set_no": 999,
        "meta_rev_at_epoch": 4378,
        "meta_bstar": 0,
        "meta_mean_motion_dot": -1.87e-06,
        "meta_mean_motion_ddot": 0,
        "tle_line1": "1 26766U 01019A   25351.69900644 -.00000187  00000+0  00000+0 0  9997",
        "tle_line2": "2 26766   8.6409  61.1075 0007678 227.9542 166.5990  0.99076588 43785"
      },
      "geometry": {
        "type": "Point",
        "coordinates": [
          -52.689138716259,
          -7.9378207836151535
        ]
      }
    },
    {
      "type": "Feature",
      "properties": {
        "norad_id": 26900,
        "name": "INTELSAT 902 (IS-902)",
        "group": "intelsat",
        "lat": 5.279012591409458,
        "lon": 142.3709167392039,
        "alt_km": 35795.84553121928,
        "timestamp": "2025-12-18T07:01:54.255187+00:00",
        "meta_object_name": "INTELSAT 902 (IS-902)",
        "meta_object_id": "2001-039A",
        "meta_epoch": "2025-12-15T13:09:02.081664",
        "meta_mean_motion": 1.0027087,
        "meta_eccentricity": 0.00045028,
        "meta_inclination": 5.6536,
        "meta_ra_of_asc_node": 74.0372,
        "meta_arg_of_pericenter": 189.6359,
        "meta_mean_anomaly": 327.9329,
        "meta_ephemeris_type": 0,
        "meta_classification_type": "U",
        "meta_norad_cat_id": 26900,
        "meta_element_set_no": 999,
        "meta_rev_at_epoch": 8885,
        "meta_bstar": 0,
        "meta_mean_motion_dot": -2.65e-06,
        "meta_mean_motion_ddot": 0,
        "tle_line1": "1 26900U 01039A   25349.54794076 -.00000265  00000+0  00000+0 0  9997",
        "tle_line2": "2 26900   5.6536  74.0372 0004502 189.6359 327.9329  1.00270870 88858"
      },
      "geometry": {
        "type": "Point",
        "coordinates": [
          142.3709167392039,
          5.279012591409458
        ]
      }
    },
    {
      "type": "Feature",
      "properties": {
        "norad_id": 27380,
        "name": "INTELSAT 904 (IS-904)",
        "group": "intelsat",
        "lat": 6.475889462303412,
        "lon": 161.12325359275263,
        "alt_km": 35791.642955916286,
        "timestamp": "2025-12-18T07:01:54.255204+00:00",
        "meta_object_name": "INTELSAT 904 (IS-904)",
        "meta_object_id": "2002-007A",
        "meta_epoch": "2025-12-17T14:53:13.576128",
        "meta_mean_motion": 1.00271789,
        "meta_eccentricity": 0.00016726,
        "meta_inclination": 6.4662,
        "meta_ra_of_asc_node": 71.3767,
        "meta_arg_of_pericenter": 244.3665,
        "meta_mean_anomaly": 322.5591,
        "meta_ephemeris_type": 0,
        "meta_classification_type": "U",
        "meta_norad_cat_id": 27380,
        "meta_element_set_no": 999,
        "meta_rev_at_epoch": 4994,
        "meta_bstar": 0,
        "meta_mean_motion_dot": -2.06e-06,
        "meta_mean_motion_ddot": 0,
        "tle_line1": "1 27380U 02007A   25351.62029602 -.00000206  00000+0  00000+0 0  9999",
        "tle_line2": "2 27380   6.4662  71.3767 0001672 244.3665 322.5591  1.00271789 49941"
      },
      "geometry": {
        "type": "Point",
        "coordinates": [
          161.12325359275263,
          6.475889462303412
        ]
      }
    },
    {
      "type": "Feature",
      "properties": {
        "norad_id": 27426,
        "name": "DIRECTV 5 (TEMPO 1)",
        "group": "intelsat",
        "lat": 0.4062658239019265,
        "lon": 82.51165694514968,
        "alt_km": 35799.23482017683,
        "timestamp": "2025-12-18T07:01:54.255218+00:00",
        "meta_object_name": "DIRECTV 5 (TEMPO 1)",
        "meta_object_id": "2002-023A",
        "meta_epoch": "2025-12-17T21:21:41.887296",
        "meta_mean_motion": 1.00272699,
        "meta_eccentricity": 0.00034016,
        "meta_inclination": 4.4147,
        "meta_ra_of_asc_node": 77.5935,
        "meta_arg_of_pericenter": 205.9079,
        "meta_mean_anomaly": 13.5685,
        "meta_ephemeris_type": 0,
        "meta_classification_type": "U",
        "meta_norad_cat_id": 27426,
        "meta_element_set_no": 999,
        "meta_rev_at_epoch": 8630,
        "meta_bstar": 0,
        "meta_mean_motion_dot": -3.6e-07,
        "meta_mean_motion_ddot": 0,
        "tle_line1": "1 27426U 02023A   25351.89006814 -.00000036  00000+0  00000+0 0  9998",
        "tle_line2": "2 27426   4.4147  77.5935 0003401 205.9079  13.5685  1.00272699 86300"
      },
      "geometry": {
        "type": "Point",
        "coordinates": [
          82.51165694514968,
          0.4062658239019265
        ]
      }
    },
    {
      "type": "Feature",
      "properties": {
        "norad_id": 27438,
        "name": "INTELSAT 905 (IS-905)",
        "group": "intelsat",
        "lat": -1.7697130998624273,
        "lon": 55.534300736142775,
        "alt_km": 35795.435032882844,
        "timestamp": "2025-12-18T07:01:54.255231+00:00",
        "meta_object_name": "INTELSAT 905 (IS-905)",
        "meta_object_id": "2002-027A",
        "meta_epoch": "2025-12-17T10:05:38.730624",
        "meta_mean_motion": 1.00273084,
        "meta_eccentricity": 0.00027324,
        "meta_inclination": 6.297,
        "meta_ra_of_asc_node": 72.0021,
        "meta_arg_of_pericenter": 197.8193,
        "meta_mean_anomaly": 190.6776,
        "meta_ephemeris_type": 0,
        "meta_classification_type": "U",
        "meta_norad_cat_id": 27438,
        "meta_element_set_no": 999,
        "meta_rev_at_epoch": 4954,
        "meta_bstar": 0,
        "meta_mean_motion_dot": 1.13e-06,
        "meta_mean_motion_ddot": 0,
        "tle_line1": "1 27438U 02027A   25351.42058716  .00000113  00000+0  00000+0 0  9997",
        "tle_line2": "2 27438   6.2970  72.0021 0002732 197.8193 190.6776  1.00273084 49547"
      },
      "geometry": {
        "type": "Point",
        "coordinates": [
          55.534300736142775,
          -1.7697130998624273
        ]
      }
    },
    {
      "type": "Feature",
      "properties": {
        "norad_id": 27445,
        "name": "GALAXY 3C (G-3C)",
        "group": "intelsat",
        "lat": 1.0002495351755705,
        "lon": 97.72666885047984,
        "alt_km": 35783.647141951245,
        "timestamp": "2025-12-18T07:01:54.255244+00:00",
        "meta_object_name": "GALAXY 3C (G-3C)",
        "meta_object_id": "2002-030A",
        "meta_epoch": "2025-12-17T14:35:07.808928",
        "meta_mean_motion": 1.00272151,
        "meta_eccentricity": 0.0001116,
        "meta_inclination": 3.2756,
        "meta_ra_of_asc_node": 80.457,
        "meta_arg_of_pericenter": 78.9562,
        "meta_mean_anomaly": 50.9897,
        "meta_ephemeris_type": 0,
        "meta_classification_type": "U",
        "meta_norad_cat_id": 27445,
        "meta_element_set_no": 999,
        "meta_rev_at_epoch": 4467,
        "meta_bstar": 0,
        "meta_mean_motion_dot": -1.3e-06,
        "meta_mean_motion_ddot": 0,
        "tle_line1": "1 27445U 02030A   25351.60772927 -.00000130  00000+0  00000+0 0  9996",
        "tle_line2": "2 27445   3.2756  80.4570 0001116  78.9562  50.9897  1.00272151 44675"
      },
      "geometry": {
        "type": "Point",
        "coordinates": [
          97.72666885047984,
          1.0002495351755705
        ]
      }
    },
    {
      "type": "Feature",
      "properties": {
        "norad_id": 27513,
        "name": "INTELSAT 906 (IS-906)",
        "group": "intelsat",
        "lat": -0.1724186211460749,
        "lon": -103.26771906980966,
        "alt_km": 35760.16039375418,
        "timestamp": "2025-12-18T07:01:54.255257+00:00",
        "meta_object_name": "INTELSAT 906 (IS-906)",
        "meta_object_id": "2002-041A",
        "meta_epoch": "2025-12-17T08:29:43.757088",
        "meta_mean_motion": 1.00272337,
        "meta_eccentricity": 0.00062852,
        "meta_inclination": 5.341,
        "meta_ra_of_asc_node": 75.1769,
        "meta_arg_of_pericenter": 196.4812,
        "meta_mean_anomaly": 6.1313,
        "meta_ephemeris_type": 0,
        "meta_classification_type": "U",
        "meta_norad_cat_id": 27513,
        "meta_element_set_no": 999,
        "meta_rev_at_epoch": 8520,
        "meta_bstar": 0,
        "meta_mean_motion_dot": 3.3e-07,
        "meta_mean_motion_ddot": 0,
        "tle_line1": "1 27513U 02041A   25351.35397867  .00000033  00000+0  00000+0 0  9993",
        "tle_line2": "2 27513   5.3410  75.1769 0006285 196.4812   6.1313  1.00272337 85204"
      },
      "geometry": {
        "type": "Point",
        "coordinates": [
          -103.26771906980966,
          -0.1724186211460749
        ]
      }
    }
  ]
}